satname,norad_id,inclination_deg,eccentricity,mean_motion_rev_per_day,perigee_km,apogee_km,l1,l2
STARLINK-1284,45390,53.0563,0.0001506,15.06402379,546.1613102607535,548.2472230502699,1 45390U 20019AG  26003.60019885  .00004998  00000+0  35416-3 0  9992,2 45390  53.0563  78.8181 0001506 101.3761 258.7397 15.06402379320192
STARLINK-1297,45395,53.0559,0.0001515,15.06406064,546.1437852231338,548.2421602048662,1 45395U 20019AM  26003.57071254  .00006902  00000+0  48173-3 0  9992,2 45395  53.0559  78.9510 0001515  88.5365 271.5797 15.06406064319375
STARLINK-1307,45397,53.0551,0.0002157,15.06677352,544.868030047428,547.8552587626255,1 45397U 20019AP  26003.62963229  .00149338  00000+0  97611-2 0  9993,2 45397  53.0551  78.6838 0002157 104.2249 255.8980 15.06677352320022
STARLINK-1255,45399,53.0479,0.0003349,15.41249449,440.13646082857395,444.7048703529863,1 45399U 20019AR  26003.52546102  .00085238  00000+0  20060-2 0  9993,2 45399  53.0479  53.5859 0003349  40.6480 319.4774 15.41249449320357
STARLINK-1260,45404,53.0554,0.0001362,15.06422041,546.200782998365,548.0872295444733,1 45404U 20019AW  26003.56425968  .00014980  00000+0  10218-2 0  9990,2 45404  53.0554  68.9754 0001362  98.5025 261.6118 15.06422041320040
STARLINK-1263,45405,53.054,0.0001791,15.06433192,545.8695193992226,548.3501428141244,1 45405U 20019AX  26003.61586304  .00014379  00000+0  98137-3 0  9998,2 45405  53.0540  68.7472 0001791  86.6711 273.4483 15.06433192320053
STARLINK-1265,45406,53.0544,0.0001614,15.06417768,546.0393596445128,548.2748445806756,1 45406U 20019AY  26003.55688498  .00010333  00000+0  71119-3 0  9996,2 45406  53.0544  69.0069 0001614 114.9637 245.1520 15.06417768320048
STARLINK-1278,45408,53.0513,0.0003661,15.43559842,433.1184673036205,438.10749503983425,1 45408U 20019BA  26003.62446377  .00091946  00000+0  20004-2 0  9999,2 45408  53.0513  82.2508 0003661 261.5135  98.5456 15.43559842319875
STARLINK-1296,45412,53.0558,0.0001491,15.06410157,546.1478635424946,548.2129931996342,1 45412U 20019BE  26003.42788037  .00013335  00000+0  91219-3 0  9997,2 45412  53.0558  69.5877 0001491 114.1891 245.9254 15.06410157320024
STARLINK-1298,45413,53.0418,0.0005382,15.67491349,362.4534284988076,369.7129070874216,1 45413U 20019BF  26003.66668981  .00152943  00000+0  13617-2 0  9993,2 45413  53.0418  20.5798 0005382  76.8021 204.6820 15.67491349  5964
STARLINK-1309,45414,53.0546,0.0001355,15.06423611,546.2008196446941,548.0775694934218,1 45414U 20019BG  26003.57531641  .00014404  00000+0  98325-3 0  9995,2 45414  53.0546  68.9280 0001355  98.0620 262.0522 15.06423611320031
STARLINK-1316,45415,53.0554,0.0001484,15.06404697,546.1694427574821,548.224881936867,1 45415U 20019BH  26003.60112625  .00003255  00000+0  23728-3 0  9994,2 45415  53.0554  68.8123 0001484  80.6606 279.4551 15.06404697320071
STARLINK-1318,45416,53.0444,0.0004638,15.7461904,342.5969431265612,348.83398867393043,1 45416U 20019BJ  26003.66668981  .00102561  00000+0  68287-3 0  9991,2 45416  53.0444   8.7921 0004638  57.9484 144.1726 15.74619040  6027
STARLINK-1286,45417,53.0524,0.0001814,15.4401711,433.0318616161803,435.503402016604,1 45417U 20019BK  26003.58809932  .00036305  00000+0  78899-3 0  9998,2 45417  53.0524  82.1336 0001814 298.4109  61.6714 15.44017110320141
STARLINK-1308,45419,53.0544,9.67e-05,15.07089876,544.4285171265847,545.7674707744154,1 45419U 20019BM  26003.63486209  .00196646  00000+0  12620-1 0  9997,2 45419  53.0544  98.6580 0000967  63.4625 296.6464 15.07089876319663
STARLINK-1329,45531,53.0541,0.000367,15.43983508,431.86628243590894,436.86665998377794,1 45531U 20025A   26003.66668981  .00078420  00000+0  16862-2 0  9993,2 45531  53.0541  33.1460 0003670  33.0120 179.3934 15.43983508  5759
STARLINK-1338,45532,53.0536,0.000146,15.41922934,439.43894259559147,441.4299654601682,1 45532U 20025B   26003.66668981  .00065607  00000+0  15160-2 0  9997,2 45532  53.0536  35.8979 0001460  74.7026 111.6991 15.41922934  5846
STARLINK-1350,45535,53.0742,0.0002018,15.34284646,461.6655673326095,464.42666883906804,1 45535U 20025E   26003.62412561  .00018805  00000+0  56833-3 0  9998,2 45535  53.0742 338.2904 0002018  89.9158 270.2074 15.34284646316167
STARLINK-1362,45538,53.0563,0.0001516,15.06403888,546.1497607689844,548.2495228387788,1 45538U 20025H   26003.51444768  .00009168  00000+0  63347-3 0  9993,2 45538  53.0563  38.9212 0001516  73.8596 286.2560 15.06403888315275
STARLINK-1368,45540,53.0547,0.0001331,15.06403409,546.2793473615438,548.1228723663899,1 45540U 20025K   26003.51910859  .00003510  00000+0  25439-3 0  9990,2 45540  53.0547  39.1813 0001331  99.1086 261.0053 15.06403409315266
STARLINK-1371,45542,53.0556,0.0001247,15.2829105,480.0654575777535,481.7761065886043,1 45542U 20025M   26003.66668981  .01032233  00000+0  33915-1 0  9995,2 45542  53.0556  37.6519 0001247  73.3640 253.2594 15.28291050  5743
STARLINK-1372,45543,53.0566,0.0001498,15.06402321,546.1670282683226,548.2418605650691,1 45543U 20025N   26003.39378799  .00000585  00000+0  58156-4 0  9992,2 45543  53.0566  39.7437 0001498  98.2513 261.8646 15.06402321314343
STARLINK-1373,45544,53.0559,0.0001341,15.24018988,492.8112863880515,494.65432186951875,1 45544U 20025P   26003.66668981  .00996850  00000+0  37343-1 0  9999,2 45544  53.0559  37.9661 0001341  70.2068 155.2289 15.24018988  5749
STARLINK-1294,45551,53.0421,0.0003137,15.73541517,346.6744342235006,350.8949048789773,1 45551U 20025W   26003.66668981  .00217276  00000+0  14904-2 0  9994,2 45551  53.0421 304.2886 0003137 146.3073  43.7947 15.73541517  5981
STARLINK-1325,45554,53.0467,0.0009599,15.87582486,302.6438999833199,315.4819864342926,1 45554U 20025Z   26003.66668981  .00405977  00000+0  14249-2 0  9996,2 45554  53.0467 293.5986 0009599 112.0931 255.4065 15.87582486  5681
STARLINK-1327,45555,53.0536,0.0001473,15.32314768,467.8994468036544,469.91658626552544,1 45555U 20025AA  26003.66668981  .01576586  00000+0  45361-1 0  9991,2 45555  53.0536  17.2950 0001473  92.7029 266.8012 15.32314768  5815
STARLINK-1356,45564,53.0562,0.0001507,15.06402748,546.1594869684113,548.24678448532,1 45564U 20025AK  26003.52095232  .00002724  00000+0  20170-3 0  9999,2 45564  53.0562  19.1720 0001507  85.4611 274.6550 15.06402748315549
STARLINK-1357,45565,53.0597,0.0003175,15.43561831,433.44376404380546,437.77049156496014,1 45565U 20025AL  26003.66668981  .00118301  00000+0  25624-2 0  9999,2 45565  53.0597 349.5034 0003175  52.7179 248.0517 15.43561831  5730
STARLINK-1361,45567,53.058,0.0001236,15.06398844,546.3591273943757,548.0710744337221,1 45567U 20025AN  26003.40669526  .00004178  00000+0  29922-3 0  9991,2 45567  53.0580  19.6884 0001236  84.5360 275.5770 15.06398844315532
STARLINK-1363,45568,53.051,0.0008295,15.53349403,401.3267255770561,412.5831931376297,1 45568U 20025AP  26003.36127192  .00053040  00000+0  82614-3 0  9994,2 45568  53.0510 359.0027 0008295   0.3807 359.7207 15.53349403315810
STARLINK-1366,45569,53.0494,0.0009806,15.51680747,405.1602535669999,418.476714262054,1 45569U 20025AQ  26003.66668981  .00102014  00000+0  16689-2 0  9998,2 45569  53.0494 358.0772 0009806  22.3991 271.3487 15.51680747  5918
STARLINK-1376,45570,53.0556,0.000134,15.06409044,546.2558465270349,548.111832512026,1 45570U 20025AR  26003.27029535  .00001416  00000+0  11389-3 0  9990,2 45570  53.0556  20.2978 0001340  90.1991 269.9151 15.06409044315502
STARLINK-1320,45572,53.0551,0.0006934,15.54532173,398.8104897275216,408.215281789091,1 45572U 20025AT  26003.66668981  .00173735  00000+0  25384-2 0  9992,2 45572  53.0551 303.1465 0006934 116.8423 334.1021 15.54532173  5974
STARLINK-1321,45573,53.0603,0.0001462,15.32406218,467.63460649686294,469.636602806464,1 45573U 20025AU  26003.66668981  .01031242  00000+0  29856-1 0  9997,2 45573  53.0603   7.1321 0001462  82.2230 337.7168 15.32406218  5852
STARLINK-1328,45576,53.0449,0.0001935,16.04118542,261.7418895581104,264.3120200086105,1 45576U 20025AX  26003.23775492  .00737471  27681-3  11092-2 0  9997,2 45576  53.0449 311.7835 0001935 158.8779 201.2332 16.04118542316471
STARLINK-1331,45578,53.0572,0.0001389,15.06394926,546.2651759863893,548.1890421358876,1 45578U 20025AZ  26003.30072201 -.00000278  00000+0  21709-6 0  9996,2 45578  53.0572  10.1578 0001389  97.1241 262.9906 15.06394926315660
STARLINK-1333,45580,53.0574,0.0001436,15.06400358,546.215980824697,548.2049406154147,1 45580U 20025BB  26003.43986444  .00000137  00000+0  28102-4 0  9991,2 45580  53.0574  19.5354 0001436  92.5641 267.5513 15.06400358315534
STARLINK-1335,45581,53.0569,0.0001202,15.06398457,546.3838595499819,548.0487144801809,1 45581U 20025BC  26003.24542344  .00002085  00000+0  15886-3 0  9996,2 45581  53.0569  10.4112 0001202 108.1866 251.9254 15.06398457315642
STARLINK-1337,45582,53.0578,0.0001547,15.06367666,546.2392920111379,548.3820255167593,1 45582U 20025BD  26003.40026760 -.00001627  00000+0 -90452-4 0  9990,2 45582  53.0578   9.7185 0001547  83.5431 276.5734 15.06367666315666
STARLINK-1347,45586,53.0527,0.0003717,15.4225901,436.90975974674893,441.9779493540227,1 45586U 20025BH  26003.66668981  .00141159  00000+0  31827-2 0  9991,2 45586  53.0527 340.4243 0003717  67.0026 359.2035 15.42259010  5934
STARLINK-1364,45589,53.0552,0.0001485,15.06399199,546.1855982635852,548.242427514414,1 45589U 20025BL  26003.40393100  .00003270  00000+0  23835-3 0  9996,2 45589  53.0552   9.6978 0001485  93.7576 266.3583 15.06399199315663
STARLINK-1365,45590,53.0561,0.0001039,15.06399385,546.4938989143329,547.9329867363531,1 45590U 20025BM  26003.41958851  .00001374  00000+0  11111-3 0  9996,2 45590  53.0561  39.6247 0001039  80.2460 279.8646 15.06399385315267
STARLINK-1443,45660,53.0525,0.0001166,15.06411311,546.3693999695179,547.9843831690314,1 45660U 20035D   26003.40483576  .00003131  00000+0  22895-3 0  9995,2 45660  53.0525 359.6948 0001166  90.4739 269.6384 15.06411311308892
